KAZEOSAT 2              
1 40010U 14033A   26162.70648339  .00000649  00000+0  81009-4 0  9993
2 40010  97.5415   2.6083 0008322 348.3780  11.7243 14.85463251648145
HODOYOSHI-4             
1 40011U 14033B   26162.72209235  .00000974  00000+0  11109-3 0  9998
2 40011  97.5455 347.8088 0022918 327.1529  32.8263 14.88114099647996
DEIMOS-2                
1 40013U 14033D   26162.69008200  .00001096  00000+0  10875-3 0  9990
2 40013  97.5847  37.3722 0001949  55.9114 304.2291 14.93713630636904
HODOYOSHI-3             
1 40015U 14033F   26162.39171933  .00000863  00000+0  10540-3 0  9993
2 40015  97.6412 325.6658 0033224  16.3408 343.8870 14.85376600646764
SPOT 7                  
1 40053U 14034A   26162.70244727  .00000661  00000+0  14415-3 0  9994
2 40053  98.0632 225.3353 0001175  86.1028 274.0307 14.60954753636332
SKYSAT-B                
1 40072U 14037D   26162.67836873  .00001185  00000+0  13576-3 0  9992
2 40072  98.3837 121.3294 0004376 305.3512  54.7293 14.88014022645144
WORLDVIEW-3 (WV-3)      
1 40115U 14048A   26162.64216257  .00000732  00000+0  92025-4 0  9991
2 40115  97.8566 237.5515 0001423  34.2805 325.8502 14.85012907641085
GAOFEN-2                
1 40118U 14049A   26162.70335847  .00000391  00000+0  57507-4 0  9996
2 40118  98.0112 226.9158 0005913 248.9113 111.1467 14.80893025638420
YAOGAN-21               
1 40143U 14053A   26162.72123655  .00006305  00000+0  24540-3 0  9994
2 40143  97.1480 203.1919 0009845 109.4222 250.8082 15.26291343654123
YAOGAN-22               
1 40275U 14063A   26162.40580769 -.00000049  00000+0 -47651-5 0  9990
2 40275 100.7716 313.5831 0006209 198.3818 161.7070 13.15530967559057
ASNARO                  
1 40298U 14070A   26162.69309765  .00009296  00000+0  44251-3 0  9991
2 40298  97.3451 238.9570 0004980 183.6345 176.4855 15.19355353643176
YAOGAN-24               
1 40310U 14072A   26162.72736317  .00000528  00000+0  83901-4 0  9994
2 40310  98.1476 300.0198 0012582 283.0367  76.9437 14.76215640622915
CBERS 4                 
1 40336U 14079A   26162.73986175  .00000129  00000+0  59637-4 0  9995
2 40336  98.3537 219.7423 0001972  68.8348 291.3048 14.35507817603172
YAOGAN-26               
1 40362U 14088A   26162.70098744  .00014119  00000+0  27987-3 0  9993
2 40362  97.0643 163.0382 0006424  79.4730 280.7244 15.47121759636852
SMAP                    
1 40376U 15003A   26162.67815329  .00000385  00000+0  83594-4 0  9995
2 40376  98.1276 169.8507 0001288  94.0624 266.0726 14.63361843606814
KOMPSAT-3A              
1 40536U 15014A   26162.70364838  .00023471  00000+0  34337-3 0  9994
2 40536  97.6881 153.6656 0056033 194.3663 165.6000 15.53740821620967
SENTINEL-2A             
1 40697U 15028A   26162.69020348  .00000238  00000+0  10741-3 0  9999
2 40697  98.5683 237.6197 0001102  86.2752 273.8557 14.30814394572947
GAOFEN-8                
1 40701U 15030A   26162.71508240  .00022076  00000+0  45706-3 0  9996
2 40701  97.6908 355.7586 0008292 206.2311 153.8518 15.45757851610600
CARBONITE 1 (CBNT-1)    
1 40718U 15032D   26162.71939101  .00001931  00000+0  24018-3 0  9990
2 40718  97.6508 341.0154 0013488 317.5888  42.4283 14.83571633588532
YAOGAN-27               
1 40878U 15040A   26162.70710241  .00000277  00000+0  84008-3 0  9994
2 40878 100.1149 149.3273 0007547 224.0083 136.0430 13.16070189516944
GAOFEN-9 01             
1 40894U 15047A   26162.73181273  .00000867  00000+0  11257-3 0  9990
2 40894  97.6277 198.6744 0027991 155.1057 205.1514 14.82873460579389
YAOGAN-28               
1 41026U 15064A   26162.68859315  .00006706  00000+0  25273-3 0  9991
2 41026  97.3061 301.0629 0010131 202.8938 157.1851 15.27351429589841
YAOGAN-29               
1 41038U 15069A   26162.71289008  .00000799  00000+0  10477-3 0  9995
2 41038  98.0035 191.3372 0002835  64.2487 295.9019 14.83082173569819
KENT RIDGE 1            
1 41167U 15077B   26162.07320463  .00003829  00000+0  12612-3 0  9997
2 41167  14.9802 311.4591 0008233 152.2159 207.8603 15.23095182580162
GAOFEN-4                
1 41194U 15083A   26162.71539647 -.00000318  00000+0  00000+0 0  9996
2 41194   0.3417  83.8419 0004249 111.8775  67.5966  1.00271933 38475
JASON-3                 
1 41240U 16002A   26162.64341104 -.00000042  00000+0  80777-4 0  9999
2 41240  66.0397 137.4902 0008570 273.0326  86.9712 12.87627961486531
SENTINEL-3A             
1 41335U 16011A   26162.67630310  .00000080  00000+0  51276-4 0  9990
2 41335  98.6249 230.1389 0001377 103.4347 256.6987 14.26738441537279
ZIYUAN 3-02 (ZY 3-02)   
1 41556U 16033A   26162.73090706  .00004579  00000+0  20668-3 0  9992
2 41556  97.3839 238.6094 0011420 311.6091  48.4166 15.21428596557158
CARTOSAT-2C             
1 41599U 16040A   26162.72556438  .00003854  00000+0  18576-3 0  9995
2 41599  97.4487 222.7789 0010083 147.9517 212.2333 15.19273000552884
SKYSAT-C1               
1 41601U 16040C   26162.61466073  .00008449  00000+0  24150-3 0  9992
2 41601  96.9571 194.6367 0003916  68.8663 291.3000 15.36206856557018
LAPAN-A3                
1 41603U 16040E   26162.70846185  .00003159  00000+0  10107-3 0  9990
2 41603  97.1484 159.0342 0011489  43.8435 316.3718 15.33069928553977
