OBJECT_NAME,OBJECT_ID,EPOCH,MEAN_MOTION,ECCENTRICITY,INCLINATION,RA_OF_ASC_NODE,ARG_OF_PERICENTER,MEAN_ANOMALY,EPHEMERIS_TYPE,CLASSIFICATION_TYPE,NORAD_CAT_ID,ELEMENT_SET_NO,REV_AT_EPOCH,BSTAR,MEAN_MOTION_DOT,MEAN_MOTION_DDOT
KAZEOSAT 2,2014-033A,2026-06-11T16:57:20.164896,14.85463251,.0008322,97.5415,2.6083,348.3780,11.7243,0,U,40010,999,64814,.81009E-4,.649E-5,0
HODOYOSHI-4,2014-033B,2026-06-11T17:19:48.779040,14.88114099,.0022918,97.5455,347.8088,327.1529,32.8263,0,U,40011,999,64799,.11109E-3,.974E-5,0
DEIMOS-2,2014-033D,2026-06-11T16:33:43.084800,14.93713630,.0001949,97.5847,37.3722,55.9114,304.2291,0,U,40013,999,63690,.10875E-3,.1096E-4,0
HODOYOSHI-3,2014-033F,2026-06-11T09:24:04.550112,14.85376600,.0033224,97.6412,325.6658,16.3408,343.8870,0,U,40015,999,64676,.1054E-3,.863E-5,0
SPOT 7,2014-034A,2026-06-11T16:51:31.444128,14.60954753,.0001175,98.0632,225.3353,86.1028,274.0307,0,U,40053,999,63633,.14415E-3,.661E-5,0
SKYSAT-B,2014-037D,2026-06-11T16:16:51.058272,14.88014022,.0004376,98.3837,121.3294,305.3512,54.7293,0,U,40072,999,64514,.13576E-3,.1185E-4,0
WORLDVIEW-3 (WV-3),2014-048A,2026-06-11T15:24:42.846048,14.85012907,.0001423,97.8566,237.5515,34.2805,325.8502,0,U,40115,999,64108,.92025E-4,.732E-5,0
GAOFEN-2,2014-049A,2026-06-11T16:52:50.171808,14.80893025,.0005913,98.0112,226.9158,248.9113,111.1467,0,U,40118,999,63842,.57507E-4,.391E-5,0
YAOGAN-21,2014-053A,2026-06-11T17:18:34.837920,15.26291343,.0009845,97.1480,203.1919,109.4222,250.8082,0,U,40143,999,65412,.2454E-3,.6305E-4,0
YAOGAN-22,2014-063A,2026-06-11T09:44:21.784416,13.15530967,.0006209,100.7716,313.5831,198.3818,161.7070,0,U,40275,999,55905,-.47651E-5,-.49E-6,0
ASNARO,2014-070A,2026-06-11T16:38:03.636960,15.19355353,.000498,97.3451,238.9570,183.6345,176.4855,0,U,40298,999,64317,.44251E-3,.9296E-4,0
YAOGAN-24,2014-072A,2026-06-11T17:27:24.177888,14.76215640,.0012582,98.1476,300.0198,283.0367,76.9437,0,U,40310,999,62291,.83901E-4,.528E-5,0
CBERS 4,2014-079A,2026-06-11T17:45:24.055200,14.35507817,.0001972,98.3537,219.7423,68.8348,291.3048,0,U,40336,999,60317,.59637E-4,.129E-5,0
YAOGAN-26,2014-088A,2026-06-11T16:49:25.314816,15.47121759,.0006424,97.0643,163.0382,79.4730,280.7244,0,U,40362,999,63685,.27987E-3,.14119E-3,0
SMAP,2015-003A,2026-06-11T16:16:32.444256,14.63361843,.0001288,98.1276,169.8507,94.0624,266.0726,0,U,40376,999,60681,.83594E-4,.385E-5,0
KOMPSAT-3A,2015-014A,2026-06-11T16:53:15.220032,15.53740821,.0056033,97.6881,153.6656,194.3663,165.6000,0,U,40536,999,62096,.34337E-3,.23471E-3,0
SENTINEL-2A,2015-028A,2026-06-11T16:33:53.580672,14.30814394,.0001102,98.5683,237.6197,86.2752,273.8557,0,U,40697,999,57294,.10741E-3,.238E-5,0
GAOFEN-8,2015-030A,2026-06-11T17:09:43.119360,15.45757851,.0008292,97.6908,355.7586,206.2311,153.8518,0,U,40701,999,61060,.45706E-3,.22076E-3,0
CARBONITE 1 (CBNT-1),2015-032D,2026-06-11T17:15:55.383264,14.83571633,.0013488,97.6508,341.0154,317.5888,42.4283,0,U,40718,999,58853,.24018E-3,.1931E-4,0
YAOGAN-27,2015-040A,2026-06-11T16:58:13.648224,13.16070189,.0007547,100.1149,149.3273,224.0083,136.0430,0,U,40878,999,51694,.84008E-3,.277E-5,0
GAOFEN-9 01,2015-047A,2026-06-11T17:33:48.619872,14.82873460,.0027991,97.6277,198.6744,155.1057,205.1514,0,U,40894,999,57938,.11257E-3,.867E-5,0
YAOGAN-28,2015-064A,2026-06-11T16:31:34.448160,15.27351429,.0010131,97.3061,301.0629,202.8938,157.1851,0,U,41026,999,58984,.25273E-3,.6706E-4,0
YAOGAN-29,2015-069A,2026-06-11T17:06:33.702912,14.83082173,.0002835,98.0035,191.3372,64.2487,295.9019,0,U,41038,999,56981,.10477E-3,.799E-5,0
KENT RIDGE 1,2015-077B,2026-06-11T01:45:24.880032,15.23095182,.00082332,14.9802,311.4591,152.2159,207.8603,0,U,41167,999,58016,.12611853E-3,.3829E-4,0
GAOFEN-4,2015-083A,2026-06-11T17:10:10.255008,1.00271933,.0004249,0.3417,83.8419,111.8775,67.5966,0,U,41194,999,3847,0,-.318E-5,0
JASON-3,2016-002A,2026-06-11T15:26:30.713856,12.87627961,.000857,66.0397,137.4902,273.0326,86.9712,0,U,41240,999,48653,.80777E-4,-.42E-6,0
SENTINEL-3A,2016-011A,2026-06-11T16:13:52.587840,14.26738441,.0001377,98.6249,230.1389,103.4347,256.6987,0,U,41335,999,53727,.51276E-4,.8E-6,0
ZIYUAN 3-02 (ZY 3-02),2016-033A,2026-06-11T17:32:30.369984,15.21428596,.001142,97.3839,238.6094,311.6091,48.4166,0,U,41556,999,55715,.20668E-3,.4579E-4,0
CARTOSAT-2C,2016-040A,2026-06-11T17:24:48.762432,15.19273000,.0010083,97.4487,222.7789,147.9517,212.2333,0,U,41599,999,55288,.18576E-3,.3854E-4,0
SKYSAT-C1,2016-040C,2026-06-11T14:45:06.687072,15.36206856,.0003916,96.9571,194.6367,68.8663,291.3000,0,U,41601,999,55701,.2415E-3,.8449E-4,0
LAPAN-A3,2016-040E,2026-06-11T17:00:11.103840,15.33069928,.0011489,97.1484,159.0342,43.8435,316.3718,0,U,41603,999,55397,.10107E-3,.3159E-4,0
